NORAD_CAT_ID,OBJECT_NAME,OBJECT_TYPE,EPOCH,MEAN_MOTION,ECCENTRICITY,INCLINATION,RA_OF_ASC_NODE,ARG_OF_PERICENTER,MEAN_ANOMALY,BSTAR,MEAN_MOTION_DOT,MEAN_MOTION_DDOT,TLE_LINE0,TLE_LINE1,TLE_LINE2,SEMIMAJOR_AXIS,PERIOD,APOGEE,PERIGEE,DECAYED
52649.0,STARLINK-3868,PAYLOAD,2023-01-01 06:28:04,15.08838876,0.0002562,53.2163,81.9336,32.9772,327.138,-0.00024263,-4.148e-05,0.0,0 STARLINK-3868,1 52649U 22052BD  23001.26949119 -.00004148  00000-0 -24263-3 0  9993,2 52649  53.2163  81.9336 0002562  32.9772 327.1380 15.08838876 35874,6917.884,95.438,541.521,537.976,0.0
52649.0,STARLINK-3868,PAYLOAD,2023-01-01 14:24:59,15.08827944,0.0002367,53.2158,80.4457,28.6257,331.4864,-0.00053457,-8.783e-05,0.0,0 STARLINK-3868,1 52649U 22052BD  23001.60069280 -.00008783  00000-0 -53457-3 0  9999,2 52649  53.2158  80.4457 0002367  28.6257 331.4864 15.08827944 35553,6917.917,95.438,541.42,538.145,0.0
52649.0,STARLINK-3868,PAYLOAD,2023-01-01 22:21:56,15.08823874,0.0002469,53.2153,78.9596,29.6216,330.4915,-0.00034218,-5.728e-05,0.0,0 STARLINK-3868,1 52649U 22052BD  23001.93189929 -.00005728  00000-0 -34218-3 0  9998,2 52649  53.2153  78.9596 0002469  29.6216 330.4915 15.08823874 35973,6917.93,95.439,541.503,538.087,0.0
52649.0,STARLINK-3868,PAYLOAD,2023-01-02 12:40:24,15.08832057,0.0002542,53.2157,76.2834,28.0677,332.0452,0.00070698,0.00010979,0.0,0 STARLINK-3868,1 52649U 22052BD  23002.52806679  .00010979  00000-0  70698-3 0  9996,2 52649  53.2157  76.2834 0002542  28.0677 332.0452 15.08832057 35695,6917.905,95.438,541.528,538.011,0.0
52649.0,STARLINK-3868,PAYLOAD,2023-01-02 15:51:11,15.08837176,0.000259,53.2157,75.6887,28.4702,331.6431,0.00096304,0.00015071,0.0,0 STARLINK-3868,1 52649U 22052BD  23002.66054798  .00015071  00000-0  96304-3 0  9998,2 52649  53.2157  75.6887 0002590  28.4702 331.6431 15.08837176 36085,6917.889,95.438,541.5459999999998,537.962,0.0
52649.0,STARLINK-3868,PAYLOAD,2023-01-03 10:55:48,15.08857297,0.0002783,53.2161,72.1214,30.0366,330.0786,0.00076028,0.00011838,0.0,0 STARLINK-3868,1 52649U 22052BD  23003.45542388  .00011838  00000-0  76028-3 0  9991,2 52649  53.2161  72.1214 0002783  30.0366 330.0786 15.08857297 35839,6917.828,95.436,541.618,537.7669999999998,0.0
52649.0,STARLINK-3868,PAYLOAD,2023-01-03 15:41:58,15.08842263,0.0002446,53.2159,71.2278,31.088,329.0256,0.00035297,5.334e-05,0.0,0 STARLINK-3868,1 52649U 22052BD  23003.65414601  .00005334  00000-0  35297-3 0  9996,2 52649  53.2159  71.2278 0002446  31.0880 329.0256 15.08842263 36236,6917.873000000001,95.437,541.431,538.0459999999998,0.0
52649.0,STARLINK-3868,PAYLOAD,2023-01-04 10:46:35,15.08851498,0.0002733,53.2165,67.66,28.1541,331.9598,0.00031661,4.756e-05,0.0,0 STARLINK-3868,1 52649U 22052BD  23004.44902139  .00004756  00000-0  31661-3 0  9990,2 52649  53.2165  67.6600 0002733  28.1541 331.9598 15.08851498 35983,6917.845,95.437,541.601,537.82,0.0
52649.0,STARLINK-3868,PAYLOAD,2023-01-04 23:29:39,15.08869488,0.0002757,53.2163,65.2816,28.1599,331.9542,0.00050981,7.841e-05,0.0,0 STARLINK-3868,1 52649U 22052BD  23004.97892978  .00007841  00000-0  50981-3 0  9991,2 52649  53.2163  65.2816 0002757  28.1599 331.9542 15.08869488 36431,6917.79,95.436,541.562,537.748,0.0
52649.0,STARLINK-3868,PAYLOAD,2023-01-05 13:48:06,15.08870153,0.0002668,53.2173,62.6081,30.7702,329.3446,0.0003355,5.06e-05,0.0,0 STARLINK-3868,1 52649U 22052BD  23005.57508059  .00005060  00000-0  33550-3 0  9996,2 52649  53.2173  62.6081 0002668  30.7702 329.3446 15.08870153 36157,6917.788000000001,95.436,541.499,537.808,0.0
52649.0,STARLINK-3868,PAYLOAD,2023-01-06 10:28:08,15.08819884,0.0002739,53.2164,58.74,20.5738,339.5364,-0.00086825,-0.00014073,0.0,0 STARLINK-3868,1 52649U 22052BD  23006.43620768 -.00014073  00000-0 -86825-3 0  9993,2 52649  53.2164  58.7400 0002739  20.5738 339.5364 15.08819884 36654,6917.941999999999,95.439,541.702,537.9119999999998,0.0
52649.0,STARLINK-3868,PAYLOAD,2023-01-07 02:22:00,15.08829546,0.0002814,53.2162,55.7657,21.3971,338.7138,0.00020594,2.99e-05,0.0,0 STARLINK-3868,1 52649U 22052BD  23007.09861520  .00002990  00000-0  20594-3 0  9993,2 52649  53.2162  55.7657 0002814  21.3971 338.7138 15.08829546 36752,6917.911999999998,95.438,541.724,537.831,0.0
52649.0,STARLINK-3868,PAYLOAD,2023-01-07 05:32:46,15.08835745,0.000274,53.216,55.1716,22.1905,337.9205,0.0012507,0.00019671,0.0,0 STARLINK-3868,1 52649U 22052BD  23007.23109842  .00019671  00000-0  12507-2 0  9999,2 52649  53.2160  55.1716 0002740  22.1905 337.9205 15.08835745 36400,6917.893,95.438,541.654,537.863,0.0
52649.0,STARLINK-3868,PAYLOAD,2023-01-07 19:51:15,15.08827824,0.0002929,53.2154,52.4946,25.5847,334.5289,0.00064851,0.00010045,0.0,0 STARLINK-3868,1 52649U 22052BD  23007.82726629  .00010045  00000-0  64851-3 0  9998,2 52649  53.2154  52.4946 0002929  25.5847 334.5289 15.08827824 36863,6917.9180000000015,95.438,541.809,537.756,0.0
52649.0,STARLINK-3868,PAYLOAD,2023-01-07 21:26:38,15.08830988,0.0002808,53.2148,52.1969,24.0658,336.0464,0.00048457,7.43e-05,0.0,0 STARLINK-3868,1 52649U 22052BD  23007.89350574  .00007430  00000-0  48457-3 0  9995,2 52649  53.2148  52.1969 0002808  24.0658 336.0464 15.08830988 36506,6917.908,95.438,541.715,537.83,0.0
52649.0,STARLINK-3868,PAYLOAD,2023-01-08 03:48:11,15.0882672,0.0002774,53.2151,51.0076,24.6531,335.4593,0.00020773,3.018e-05,0.0,0 STARLINK-3868,1 52649U 22052BD  23008.15846869  .00003018  00000-0  20773-3 0  9991,2 52649  53.2151  51.0076 0002774  24.6531 335.4593 15.08826720 36915,6917.920999999999,95.438,541.705,537.867,0.0
52649.0,STARLINK-3868,PAYLOAD,2023-01-08 19:42:02,15.08850502,0.0002914,53.2154,48.035,25.4274,334.6861,0.00077214,0.00012026,0.0,0 STARLINK-3868,1 52649U 22052BD  23008.82086752  .00012026  00000-0  77214-3 0  9993,2 52649  53.2154  48.0350 0002914  25.4274 334.6861 15.08850502 37014,6917.848000000001,95.437,541.729,537.697,0.0
52649.0,STARLINK-3868,PAYLOAD,2023-01-09 08:25:07,15.08861874,0.0002935,53.2152,45.6555,28.561,331.5542,0.00087458,0.00013667,0.0,0 STARLINK-3868,1 52649U 22052BD  23009.35078379  .00013667  00000-0  87458-3 0  9991,2 52649  53.2152  45.6555 0002935  28.5610 331.5542 15.08861874 36726,6917.814,95.436,541.7090000000002,537.648,0.0
52649.0,STARLINK-3868,PAYLOAD,2023-01-10 01:54:21,15.08856083,0.0002547,53.2148,42.3835,45.8331,314.2870000000001,0.00024634,3.636e-05,0.0,0 STARLINK-3868,1 52649U 22052BD  23010.07941912  .00003636  00000-0  24634-3 0  9996,2 52649  53.2148  42.3835 0002547  45.8331 314.2870 15.08856083 37209,6917.831,95.437,541.4580000000002,537.934,0.0
52649.0,STARLINK-3868,PAYLOAD,2023-01-10 11:26:40,15.08841198,0.0002901,53.2147,40.5988,24.4529,335.6601,0.0002856999999999,4.262e-05,0.0,0 STARLINK-3868,1 52649U 22052BD  23010.47686278  .00004262  00000-0  28570-3 0  9990,2 52649  53.2147  40.5988 0002901  24.4529 335.6601 15.08841198 37269,6917.877,95.437,541.749,537.735,0.0
52649.0,STARLINK-3868,PAYLOAD,2023-01-10 19:23:36,15.08847848,0.0002935,53.2152,39.113,25.2986,334.815,0.00093553,0.00014636,0.0,0 STARLINK-3868,1 52649U 22052BD  23010.80806272  .00014636  00000-0  93553-3 0  9994,2 52649  53.2152  39.1130 0002935  25.2986 334.8150 15.08847848 36943,6917.856,95.437,541.752,537.691,0.0
52649.0,STARLINK-3868,PAYLOAD,2023-01-11 08:06:41,15.08853226,0.0002832,53.2162,36.7339,28.3942,331.7204,0.00081418,0.00012698,0.0,0 STARLINK-3868,1 52649U 22052BD  23011.33798045  .00012698  00000-0  81418-3 0  9994,2 52649  53.2162  36.7339 0002832  28.3942 331.7204 15.08853226 37023,6917.84,95.437,541.664,537.746,0.0
52649.0,STARLINK-3868,PAYLOAD,2023-01-11 22:25:10,15.08842001,0.0003082,53.2142,34.0572,22.1458,337.9666,0.00032358,4.866e-05,0.0,0 STARLINK-3868,1 52649U 22052BD  23011.93414609  .00004866  00000-0  32358-3 0  9998,2 52649  53.2142  34.0572 0003082  22.1458 337.9666 15.08842001 37482,6917.874,95.437,541.871,537.607,0.0
52649.0,STARLINK-3868,PAYLOAD,2023-01-12 07:57:29,15.08835502,0.0002756,53.2158,32.2725,21.8633,338.2476,0.0004295,6.553e-05,0.0,0 STARLINK-3868,1 52649U 22052BD  23012.33158837  .00006553  00000-0  42950-3 0  9995,2 52649  53.2158  32.2725 0002756  21.8633 338.2476 15.08835502 37545,6917.894,95.438,541.6659999999998,537.8530000000002,0.0
52649.0,STARLINK-3868,PAYLOAD,2023-01-12 22:15:58,15.08832825,0.0002687,53.2136,29.597,34.0768,326.0396,0.00034539,5.212e-05,0.0,0 STARLINK-3868,1 52649U 22052BD  23012.92775658  .00005212  00000-0  34539-3 0  9991,2 52649  53.2136  29.5970 0002687  34.0768 326.0396 15.08832825 37631,6917.901999999999,95.438,541.626,537.908,0.0
52649.0,STARLINK-3868,PAYLOAD,2023-01-13 07:48:17,15.08838088,0.0002645,53.2147,27.8133,32.3534,327.76199999999994,0.00066396,0.00010294,0.0,0 STARLINK-3868,1 52649U 22052BD  23013.32519905  .00010294  00000-0  66396-3 0  9999,2 52649  53.2147  27.8133 0002645  32.3534 327.7620 15.08838088 37322,6917.886,95.438,541.581,537.9209999999999,0.0
52649.0,STARLINK-3868,PAYLOAD,2023-01-13 17:20:36,15.08838647,0.0002609,53.2144,26.0289,34.439,325.6771,0.00058906,9.099e-05,0.0,0 STARLINK-3868,1 52649U 22052BD  23013.72264133  .00009099  00000-0  58906-3 0  9992,2 52649  53.2144  26.0289 0002609  34.4390 325.6771 15.08838647 37386,6917.885,95.438,541.554,537.945,0.0
52649.0,STARLINK-3868,PAYLOAD,2023-01-14 01:17:31,15.08841614,0.0002438,53.2142,24.5453,39.4683,320.6486,0.00049305,7.568e-05,0.0,0 STARLINK-3868,1 52649U 22052BD  23014.05384186  .00007568  00000-0  49305-3 0  9992,2 52649  53.2142  24.5453 0002438  39.4683 320.6486 15.08841614 37803,6917.875,95.437,541.427,538.054,0.0
52649.0,STARLINK-3868,PAYLOAD,2023-01-15 01:08:19,15.08839073,0.0002648999999999,53.2147,20.0839,61.6956,298.4303,0.00016663,2.364e-05,0.0,0 STARLINK-3868,1 52649U 22052BD  23015.04744395  .00002364  00000-0  16663-3 0  9994,2 52649  53.2147  20.0839 0002649  61.6956 298.4303 15.08839073 37953,6917.883000000001,95.438,541.581,537.9159999999999,0.0
